[{"OBJECT_NAME":"KINEIS-4A","OBJECT_ID":"2025-056D","EPOCH":"2026-03-09T22:34:56.006400","MEAN_MOTION":14.72324444,"ECCENTRICITY":0.00017943,"INCLINATION":97.9939,"RA_OF_ASC_NODE":195.3129,"ARG_OF_PERICENTER":234.6106,"MEAN_ANOMALY":125.4934,"EPHEMERIS_TYPE":0,"CLASSIFICATION_TYPE":"U","NORAD_CAT_ID":63303,"ELEMENT_SET_NO":999,"REV_AT_EPOCH":5252,"BSTAR":0.00048236611,"MEAN_MOTION_DOT":3.002e-5,"MEAN_MOTION_DDOT":0},{"OBJECT_NAME":"COSMOS 2251 DEB","OBJECT_ID":"1993-036BRZ","EPOCH":"2026-03-05T11:08:51.070272","MEAN_MOTION":14.61451796,"ECCENTRICITY":0.0072197,"INCLINATION":74.0163,"RA_OF_ASC_NODE":116.1304,"ARG_OF_PERICENTER":244.4285,"MEAN_ANOMALY":176.502,"EPHEMERIS_TYPE":0,"CLASSIFICATION_TYPE":"U","NORAD_CAT_ID":38067,"ELEMENT_SET_NO":999,"REV_AT_EPOCH":63764,"BSTAR":0.00039585,"MEAN_MOTION_DOT":2.003e-5,"MEAN_MOTION_DDOT":0}]
